{
  "type": "FeatureCollection",
  "features": [
    {
      "type": "Feature",
      "properties": {
        "norad_id": 28054,
        "name": "DMSP 5D-3 F16 (USA 172)",
        "group": "weather",
        "lat": -13.628939342305474,
        "lon": -178.59069468807718,
        "alt_km": 851.7492276971079,
        "timestamp": "2025-12-12T03:50:52.058927+00:00",
        "meta_object_name": "DMSP 5D-3 F16 (USA 172)",
        "meta_object_id": "2003-048A",
        "meta_epoch": "2025-12-11T12:23:16.326816",
        "meta_mean_motion": 14.14423643,
        "meta_eccentricity": 0.00065387,
        "meta_inclination": 99.0048,
        "meta_ra_of_asc_node": 2.9635,
        "meta_arg_of_pericenter": 324.7448,
        "meta_mean_anomaly": 190.7885,
        "meta_ephemeris_type": 0,
        "meta_classification_type": "U",
        "meta_norad_cat_id": 28054,
        "meta_element_set_no": 999,
        "meta_rev_at_epoch": 14295,
        "meta_bstar": 0.00013937036,
        "meta_mean_motion_dot": 2.21e-06,
        "meta_mean_motion_ddot": 0,
        "tle_line1": "1 28054U 03048A   25345.51616119  .00000221  00000+0  13937-3 0  9993",
        "tle_line2": "2 28054  99.0048   2.9635 0006538 324.7448 190.7885 14.14423643142951"
      },
      "geometry": {
        "type": "Point",
        "coordinates": [
          -178.59069468807718,
          -13.628939342305474
        ]
      }
    },
    {
      "type": "Feature",
      "properties": {
        "norad_id": 28912,
        "name": "METEOSAT-9 (MSG-2)",
        "group": "weather",
        "lat": 6.984292565652172,
        "lon": -175.1963239379535,
        "alt_km": 35776.62046865049,
        "timestamp": "2025-12-12T03:50:52.058978+00:00",
        "meta_object_name": "METEOSAT-9 (MSG-2)",
        "meta_object_id": "2005-049B",
        "meta_epoch": "2025-12-10T20:37:31.694304",
        "meta_mean_motion": 1.00275463,
        "meta_eccentricity": 0.0003704,
        "meta_inclination": 8.9357,
        "meta_ra_of_asc_node": 55.9949,
        "meta_arg_of_pericenter": 190.2808,
        "meta_mean_anomaly": 188.5842,
        "meta_ephemeris_type": 0,
        "meta_classification_type": "U",
        "meta_norad_cat_id": 28912,
        "meta_element_set_no": 999,
        "meta_rev_at_epoch": 511,
        "meta_bstar": 0,
        "meta_mean_motion_dot": 1.27e-06,
        "meta_mean_motion_ddot": 0,
        "tle_line1": "1 28912U 05049B   25344.85939461  .00000127  00000+0  00000+0 0  9991",
        "tle_line2": "2 28912   8.9357  55.9949 0003704 190.2808 188.5842  1.00275463  5110"
      },
      "geometry": {
        "type": "Point",
        "coordinates": [
          -175.1963239379535,
          6.984292565652172
        ]
      }
    },
    {
      "type": "Feature",
      "properties": {
        "norad_id": 29522,
        "name": "DMSP 5D-3 F17 (USA 191)",
        "group": "weather",
        "lat": 46.22279054795257,
        "lon": -179.2007661141082,
        "alt_km": 838.9503513536811,
        "timestamp": "2025-12-12T03:50:52.058996+00:00",
        "meta_object_name": "DMSP 5D-3 F17 (USA 191)",
        "meta_object_id": "2006-050A",
        "meta_epoch": "2025-12-11T13:38:35.487456",
        "meta_mean_motion": 14.14918695,
        "meta_eccentricity": 0.0009358,
        "meta_inclination": 98.7394,
        "meta_ra_of_asc_node": 350.9819,
        "meta_arg_of_pericenter": 228.5123,
        "meta_mean_anomaly": 131.5248,
        "meta_ephemeris_type": 0,
        "meta_classification_type": "U",
        "meta_norad_cat_id": 29522,
        "meta_element_set_no": 999,
        "meta_rev_at_epoch": 98588,
        "meta_bstar": 0.00015885627,
        "meta_mean_motion_dot": 2.64e-06,
        "meta_mean_motion_ddot": 0,
        "tle_line1": "1 29522U 06050A   25345.56846629  .00000264  00000+0  15886-3 0  9998",
        "tle_line2": "2 29522  98.7394 350.9819 0009358 228.5123 131.5248 14.14918695985885"
      },
      "geometry": {
        "type": "Point",
        "coordinates": [
          -179.2007661141082,
          46.22279054795257
        ]
      }
    },
    {
      "type": "Feature",
      "properties": {
        "norad_id": 32958,
        "name": "FENGYUN 3A",
        "group": "weather",
        "lat": -17.374992472185305,
        "lon": 102.9628263775044,
        "alt_km": 834.2816523966267,
        "timestamp": "2025-12-12T03:50:52.059010+00:00",
        "meta_object_name": "FENGYUN 3A",
        "meta_object_id": "2008-026A",
        "meta_epoch": "2025-12-11T13:23:10.858848",
        "meta_mean_motion": 14.19514062,
        "meta_eccentricity": 0.00079524,
        "meta_inclination": 98.6697,
        "meta_ra_of_asc_node": 285.1095,
        "meta_arg_of_pericenter": 314.0975,
        "meta_mean_anomaly": 45.9546,
        "meta_ephemeris_type": 0,
        "meta_classification_type": "U",
        "meta_norad_cat_id": 32958,
        "meta_element_set_no": 999,
        "meta_rev_at_epoch": 90878,
        "meta_bstar": 0.00012045508,
        "meta_mean_motion_dot": 2.11e-06,
        "meta_mean_motion_ddot": 0,
        "tle_line1": "1 32958U 08026A   25345.55776457  .00000211  00000+0  12046-3 0  9997",
        "tle_line2": "2 32958  98.6697 285.1095 0007952 314.0975  45.9546 14.19514062908784"
      },
      "geometry": {
        "type": "Point",
        "coordinates": [
          102.9628263775044,
          -17.374992472185305
        ]
      }
    },
    {
      "type": "Feature",
      "properties": {
        "norad_id": 35491,
        "name": "GOES 14",
        "group": "weather",
        "lat": -0.9803002142646623,
        "lon": 29.47304406082758,
        "alt_km": 35838.978851069274,
        "timestamp": "2025-12-12T03:50:52.059024+00:00",
        "meta_object_name": "GOES 14",
        "meta_object_id": "2009-033A",
        "meta_epoch": "2025-12-11T11:16:48.751680",
        "meta_mean_motion": 1.00103386,
        "meta_eccentricity": 0.00014146,
        "meta_inclination": 1.1994,
        "meta_ra_of_asc_node": 85.4084,
        "meta_arg_of_pericenter": 147.048,
        "meta_mean_anomaly": 268.2325,
        "meta_ephemeris_type": 0,
        "meta_classification_type": "U",
        "meta_norad_cat_id": 35491,
        "meta_element_set_no": 999,
        "meta_rev_at_epoch": 471,
        "meta_bstar": 0,
        "meta_mean_motion_dot": -3.2e-07,
        "meta_mean_motion_ddot": 0,
        "tle_line1": "1 35491U 09033A   25345.47000870 -.00000032  00000+0  00000+0 0  9996",
        "tle_line2": "2 35491   1.1994  85.4084 0001414 147.0480 268.2325  1.00103386  4713"
      },
      "geometry": {
        "type": "Point",
        "coordinates": [
          29.47304406082758,
          -0.9803002142646623
        ]
      }
    },
    {
      "type": "Feature",
      "properties": {
        "norad_id": 35951,
        "name": "DMSP 5D-3 F18 (USA 210)",
        "group": "weather",
        "lat": 0.5592747735968292,
        "lon": -37.52356217531415,
        "alt_km": 842.0231743265895,
        "timestamp": "2025-12-12T03:50:52.059036+00:00",
        "meta_object_name": "DMSP 5D-3 F18 (USA 210)",
        "meta_object_id": "2009-057A",
        "meta_epoch": "2025-12-11T14:15:59.170176",
        "meta_mean_motion": 14.14768156,
        "meta_eccentricity": 0.00120681,
        "meta_inclination": 98.8834,
        "meta_ra_of_asc_node": 322.0009,
        "meta_arg_of_pericenter": 65.7399,
        "meta_mean_anomaly": 294.5033,
        "meta_ephemeris_type": 0,
        "meta_classification_type": "U",
        "meta_norad_cat_id": 35951,
        "meta_element_set_no": 999,
        "meta_rev_at_epoch": 83306,
        "meta_bstar": 0.00023410018,
        "meta_mean_motion_dot": 4.07e-06,
        "meta_mean_motion_ddot": 0,
        "tle_line1": "1 35951U 09057A   25345.59443484  .00000407  00000+0  23410-3 0  9997",
        "tle_line2": "2 35951  98.8834 322.0009 0012068  65.7399 294.5033 14.14768156833066"
      },
      "geometry": {
        "type": "Point",
        "coordinates": [
          -37.52356217531415,
          0.5592747735968292
        ]
      }
    },
    {
      "type": "Feature",
      "properties": {
        "norad_id": 36411,
        "name": "EWS-G2 (GOES 15)",
        "group": "weather",
        "lat": 0.7289894849156572,
        "lon": -159.82065111794927,
        "alt_km": 35774.448629840765,
        "timestamp": "2025-12-12T03:50:52.059050+00:00",
        "meta_object_name": "EWS-G2 (GOES 15)",
        "meta_object_id": "2010-008A",
        "meta_epoch": "2025-12-11T15:03:13.121280",
        "meta_mean_motion": 1.00269515,
        "meta_eccentricity": 0.00057963,
        "meta_inclination": 0.8115,
        "meta_ra_of_asc_node": 86.0579,
        "meta_arg_of_pericenter": 174.5048,
        "meta_mean_anomaly": 107.2429,
        "meta_ephemeris_type": 0,
        "meta_classification_type": "U",
        "meta_norad_cat_id": 36411,
        "meta_element_set_no": 999,
        "meta_rev_at_epoch": 5775,
        "meta_bstar": 0,
        "meta_mean_motion_dot": 4.6e-07,
        "meta_mean_motion_ddot": 0,
        "tle_line1": "1 36411U 10008A   25345.62723520  .00000046  00000+0  00000+0 0  9998",
        "tle_line2": "2 36411   0.8115  86.0579 0005796 174.5048 107.2429  1.00269515 57751"
      },
      "geometry": {
        "type": "Point",
        "coordinates": [
          -159.82065111794927,
          0.7289894849156572
        ]
      }
    }
  ]
}